STARLINK-2326           
1 47870U 21021L   24121.92523186  .00001624  00000+0  12797-3 0  9999
2 47870  53.0540  89.2192 0001680  96.9963 263.1217 15.06388897173720
STARLINK-2327           
1 47871U 21021M   24121.57184160  .00006919  00000+0  48294-3 0  9999
2 47871  53.0530  65.8071 0001482  79.6518 280.4638 15.06397120174123
STARLINK-2329           
1 47873U 21021P   24121.55343008  .00012439  00000+0  85269-3 0  9994
2 47873  53.0536  65.8880 0001609  97.0713 263.0459 15.06392306174119
STARLINK-2330           
1 47874U 21021Q   24121.89483568  .00008190  00000+0  56821-3 0  9999
2 47874  53.0541  19.3665 0001230  77.3207 282.7919 15.06391850174808
STARLINK-2331           
1 47875U 21021R   24121.61145490  .00006747  00000+0  47125-3 0  9992
2 47875  53.0527  75.6273 0001297  84.6215 275.4922 15.06410605174045
STARLINK-2332           
1 47876U 21021S   24121.60041221  .00003600  00000+0  26057-3 0  9995
2 47876  53.0555  75.6771 0001585  90.3962 269.7209 15.06378793173991
STARLINK-2333           
1 47877U 21021T   24121.15069640  .00002290  00000+0  17249-3 0  9998
2 47877  53.0551  77.6943 0002262  97.4684 262.6562 15.06424877173914
STARLINK-2335           
1 47878U 21021U   24121.16177744  .00000625  00000+0  60847-4 0  9998
2 47878  53.0543  77.6454 0001469  93.1724 266.9434 15.06395314173715
STARLINK-2336           
1 47879U 21021V   24121.62297634 -.00000030  00000+0  16898-4 0  9999
2 47879  53.0546  90.5737 0001506  96.2763 263.8398 15.06399038173954
STARLINK-2337           
1 47880U 21021W   24121.19770656 -.00000592  00000+0 -20827-4 0  9994
2 47880  53.0524  87.4842 0001359  97.9039 262.2105 15.06400685173785
STARLINK-2339           
1 47881U 21021X   24121.62161736  .00007920  00000+0  54994-3 0  9997
2 47881  53.0541  85.5804 0001436  94.2963 265.8190 15.06401771173818
STARLINK-2340           
1 47882U 21021Y   24121.59672210  .00004664  00000+0  33176-3 0  9999
2 47882  53.0539  75.6927 0001489  86.6212 273.4947 15.06400736174155
STARLINK-2342           
1 47883U 21021Z   24121.17052980 -.00000392  00000+0 -74112-5 0  9993
2 47883  53.0552  82.6065 0001550  95.5761 264.5405 15.06402052174028
STARLINK-2343           
1 47884U 21021AA  24121.61791119 -.00000485  00000+0 -13649-4 0  9997
2 47884  53.0549  85.5971 0001515  96.9683 263.1478 15.06393256173841
STARLINK-2344           
1 47885U 21021AB  24121.94365565  .00001987  00000+0  15225-3 0  9993
2 47885  53.0528  89.1357 0001402  84.6267 275.4882 15.06392883173989
STARLINK-2346           
1 47887U 21021AD  24121.63633633  .00000263  00000+0  36551-4 0  9997
2 47887  53.0551  85.5131 0001448  89.4842 270.6313 15.06399144173858
STARLINK-2348           
1 47888U 21021AE  24121.59303969  .00000562  00000+0  56620-4 0  9990
2 47888  53.0546  75.7088 0001536  91.3545 268.7620 15.06395849173515
STARLINK-2349           
1 47889U 21021AF  24121.60409319  .00008131  00000+0  56420-3 0  9996
2 47889  53.0545  75.6582 0001478  82.9329 277.1828 15.06395405174045
STARLINK-2351           
1 47891U 21021AH  24121.61053560  .00000952  00000+0  82804-4 0  9992
2 47891  53.0545  85.6297 0001337  88.1118 272.0024 15.06397055174012
STARLINK-2352           
1 47892U 21021AJ  24121.93018447  .00005008  00000+0  35474-3 0  9990
2 47892  53.0543  43.4338 0001411 100.3572 259.7576 15.06411992174485
STARLINK-2354           
1 47894U 21021AL  24121.56722039 -.00000719  00000+0 -29391-4 0  9998
2 47894  53.0540  75.8229 0001324  91.1383 268.9758 15.06397430173935
STARLINK-2355           
1 47895U 21021AM  24121.57828144 -.00000842  00000+0 -37662-4 0  9991
2 47895  53.0539  75.7741 0001450  97.1659 262.9495 15.06397700173510
STARLINK-2356           
1 47896U 21021AN  24121.63772367 -.00000583  00000+0 -20249-4 0  9999
2 47896  53.0556  90.5077 0001640  88.7645 271.3532 15.06399315173733
STARLINK-2357           
1 47897U 21021AP  24121.53669835  .00006857  00000+0  61466-4 0  9998
2 47897  53.0544  57.0296 0001282 108.7557 251.3599 15.69686548174254
STARLINK-2358           
1 47898U 21021AQ  24121.57091261  .00000554  00000+0  56076-4 0  9994
2 47898  53.0537  75.8080 0001491  98.5999 261.5158 15.06393126173514
STARLINK-2360           
1 47900U 21021AS  24121.49448190 -.00001815  00000+0 -10123-4 0  9992
2 47900  53.0534  48.7472 0000916 111.5340 248.5774 15.69713391174368
STARLINK-2361           
1 47901U 21021AT  24121.55710388  .00003191  00000+0  23307-3 0  9995
2 47901  53.0540  65.9596 0001759  98.5167 261.6022 15.06392736173640
STARLINK-2362           
1 47902U 21021AU  24121.60685542 -.00000244  00000+0  25073-5 0  9996
2 47902  53.0544  85.6460 0001370  89.1777 270.9369 15.06400368173958
STARLINK-2363           
1 47903U 21021AV  24121.56351729 -.00001205  00000+0 -62045-4 0  9997
2 47903  53.0546  65.8337 0001213  86.8433 273.2694 15.06401094174464
STARLINK-2364           
1 47904U 21021AW  24121.56077947  .00001944  00000+0  14933-3 0  9995
2 47904  53.0541  65.8579 0001483  95.2022 264.9136 15.06401270174100
STARLINK-2365           
1 47905U 21021AX  24121.55614575  .00004780  00000+0  33962-3 0  9993
2 47905  53.0537  65.8675 0001487 110.9884 249.1264 15.06393527173659
STARLINK-2367           
1 47907U 21021AZ  24121.63267051  .00007276  00000+0  50683-3 0  9999
2 47907  53.0531  85.5319 0001272  88.0568 272.0567 15.06399621173815
STARLINK-2368           
1 47908U 21021BA  24121.64002669  .00000001  00000+0  18982-4 0  9999
2 47908  53.0555  85.4960 0001561  89.7011 270.4157 15.06400599173842
STARLINK-2369           
1 47909U 21021BB  24121.58934774  .00003531  00000+0  25587-3 0  9993
2 47909  53.0543  75.7259 0001418  86.2066 273.9085 15.06395912174140
STARLINK-2370           
1 47910U 21021BC  24121.57461927 -.00000875  00000+0 -39846-4 0  9993
2 47910  53.0540  75.9570 0001543  97.3803 262.7361 15.06395720173990
STARLINK-2371           
1 47911U 21021BD  24121.64144455  .00004288  00000+0  30679-3 0  9990
2 47911  53.0553  90.7320 0001648 104.4497 255.6675 15.06372743173627
STARLINK-2372           
1 47912U 21021BE  24121.15344944  .00000311  00000+0  39789-4 0  9997
2 47912  53.0555  77.6711 0001582  95.1695 264.9474 15.06404280173768
STARLINK-2374           
1 47913U 21021BF  24121.62533909 -.00002241  00000+0 -13156-3 0  9996
2 47913  53.0552  86.0367 0001699  97.7003 262.4179 15.06405000173853
STARLINK-2375           
1 47914U 21021BG  24121.17928692 -.00000151  00000+0  87788-5 0  9995
2 47914  53.0550  87.5640 0001459  96.4471 263.6685 15.06402069173308
STARLINK-2376           
1 47915U 21021BH  24121.91667824  .00295815  00000+0  13684-2 0  9998
2 47915  53.0514  42.6643 0001003 110.4586  57.4531 15.82145119  5951
STARLINK-2378           
1 47916U 21021BJ  24121.54971775  .00004164  00000+0  29834-3 0  9991
2 47916  53.0545  65.9066 0001458 107.6697 252.4451 15.06395202173644
STARLINK-2397           
1 47917U 21021BK  24121.15809099  .00000089  00000+0  24841-4 0  9994
2 47917  53.0554  77.6593 0001348  92.6205 267.4938 15.06395837173893
STARLINK-2398           
1 47918U 21021BL  24121.56355359  .00000591  00000+0  58559-4 0  9996
2 47918  53.0548  75.8407 0001535  86.2575 273.8589 15.06403572173505
STARLINK-2405           
1 47919U 21021BM  24121.21613536 -.00001237  00000+0 -64135-4 0  9990
2 47919  53.0555  87.4015 0001669  90.8597 269.2583 15.06400671173770
STARLINK-2087           
1 47977U 21024A   24121.75566471 -.00000160  00000+0  81716-5 0  9999
2 47977  53.0543 129.9767 0001330  97.1296 262.9845 15.06397117172521
STARLINK-1647           
1 47978U 21024B   24121.77684720 -.00010009  00000+0 -65335-3 0  9991
2 47978  53.0541 139.8831 0001220  97.0833 263.0295 15.06436511172383
STARLINK-2325           
1 47979U 21024C   24121.58198788  .00009658  00000+0  66650-3 0  9992
2 47979  53.0539  75.7672 0001387  87.1965 272.9182 15.06393691173265
STARLINK-2312           
1 47980U 21024D   24121.53592651  .00003812  00000+0  27475-3 0  9994
2 47980  53.0530  56.0916 0001446 107.1189 252.9958 15.06384707173535
STARLINK-2303           
1 47981U 21024E   24121.76580891  .00000266  00000+0  36748-4 0  9997
2 47981  53.0535 139.9366 0001432  86.4797 273.6356 15.06403745172388
STARLINK-2317           
1 47982U 21024F   24121.54740706 -.00007325  00000+0 -47325-3 0  9994
2 47982  53.0540  70.9167 0001337  93.6149 266.4993 15.06408986172797
STARLINK-2308           
1 47985U 21024J   24121.15443013  .00003013  00000+0  22105-3 0  9992
2 47985  53.0549  77.8406 0001445  88.4541 271.6613 15.06401734173139
STARLINK-2305           
1 47989U 21024N   24121.93629507  .00003414  00000+0  24803-3 0  9998
2 47989  53.0532  49.1793 0001590  81.5930 278.5239 15.06392106173618
STARLINK-2307           
1 47990U 21024P   24121.95472542  .00006788  00000+0  47415-3 0  9998
2 47990  53.0535  49.0852 0001192  83.2790 276.8334 15.06398140173609
STARLINK-2279           
1 47991U 21024Q   24121.56815716  .00007265  00000+0  50615-3 0  9997
2 47991  53.0544  65.8342 0001443  86.9293 273.1861 15.06395287173397
STARLINK-2229           
1 47992U 21024R   24121.52255773  .00007872  00000+0  54686-3 0  9991
2 47992  53.0537  61.1137 0001471 106.1248 253.9903 15.06392764173410
STARLINK-2273           
1 47993U 21024S   24121.26452211 -.00000370  00000+0 -59543-5 0  9996
2 47993  53.0543 102.1851 0001279  94.0500 266.0635 15.06389551172864
STARLINK-2290           
1 47994U 21024T   24121.26865709 -.00001035  00000+0 -50626-4 0  9998
2 47994  53.0543 117.1628 0001388  95.0829 265.0318 15.06398225172594
STARLINK-2309           
1 47995U 21024U   24121.60919603  .00000810  00000+0  73272-4 0  9990
2 47995  53.0545  80.9566 0001446  86.8663 273.2491 15.06397547173145
STARLINK-2260           
1 47996U 21024V   24121.91652889  .00007593  00000+0  52813-3 0  9997
2 47996  53.0549   4.5611 0001369 106.4291 253.6848 15.06396484174297
